{"type": "FeatureCollection", "features": [ {"type": "Feature", "properties": {"norad_id": 66494, "name": "STARLINK-35689", "group": "last-30-days", "lat": -39.20793065799105, "lon": 0.6676089498188763, "alt_km": 425.9985510944316, "timestamp": "2025-12-13T16:48:31.464463+00:00", "meta": {"OBJECT_NAME": "STARLINK-35689", "OBJECT_ID": "2025-263K", "EPOCH": "2025-12-12T18:03:24.665184", "MEAN_MOTION": 15.47517155, "ECCENTRICITY": 0.00021524, "INCLINATION": 42.9971, "RA_OF_ASC_NODE": 125.0777, "ARG_OF_PERICENTER": 302.4914, "MEAN_ANOMALY": 57.5737, "EPHEMERIS_TYPE": 0, "CLASSIFICATION_TYPE": "U", "NORAD_CAT_ID": 66494, "ELEMENT_SET_NO": 999, "REV_AT_EPOCH": 556, "BSTAR": 0.0016577823, "MEAN_MOTION_DOT": 0.00087982, "MEAN_MOTION_DDOT": 0}, "tle": {"line1": "1 66494U 25263K   25346.75236881  .00087982  00000+0  16578-2 0  9999", "line2": "2 66494  42.9971 125.0777 0002152 302.4914  57.5737 15.47517155  5566"}}, "geometry": {"type": "Point", "coordinates": [0.6676089498188763, -39.20793065799105]}}, {"type": "Feature", "properties": {"norad_id": 66495, "name": "STARLINK-35832", "group": "last-30-days", "lat": -42.82264037458111, "lon": 23.52277806879471, "alt_km": 420.69885361132856, "timestamp": "2025-12-13T16:48:31.464473+00:00", "meta": {"OBJECT_NAME": "STARLINK-35832", "OBJECT_ID": "2025-263L", "EPOCH": "2025-12-12T19:33:21.941856", "MEAN_MOTION": 15.49798239, "ECCENTRICITY": 0.00024982, "INCLINATION": 42.9996, "RA_OF_ASC_NODE": 124.6875, "ARG_OF_PERICENTER": 262.5587, "MEAN_ANOMALY": 97.4989, "EPHEMERIS_TYPE": 0, "CLASSIFICATION_TYPE": "U", "NORAD_CAT_ID": 66495, "ELEMENT_SET_NO": 999, "REV_AT_EPOCH": 557, "BSTAR": -0.0060463366, "MEAN_MOTION_DOT": -0.00331191, "MEAN_MOTION_DDOT": 0}, "tle": {"line1": "1 66495U 25263L   25346.81483729 -.00331191  00000+0 -60463-2 0  9990", "line2": "2 66495  42.9996 124.6875 0002498 262.5587  97.4989 15.49798239  5572"}}, "geometry": {"type": "Point", "coordinates": [23.52277806879471, -42.82264037458111]}}, {"type": "Feature", "properties": {"norad_id": 66496, "name": "STARLINK-35909", "group": "last-30-days", "lat": -42.94523270347832, "lon": 32.23509884486633, "alt_km": 416.89183116159984, "timestamp": "2025-12-13T16:48:31.464483+00:00", "meta": {"OBJECT_NAME": "STARLINK-35909", "OBJECT_ID": "2025-263M", "EPOCH": "2025-12-12T17:59:55.902048", "MEAN_MOTION": 15.50601004, "ECCENTRICITY": 0.00015889, "INCLINATION": 42.9983, "RA_OF_ASC_NODE": 125.0593, "ARG_OF_PERICENTER": 275.2711, "MEAN_ANOMALY": 84.7968, "EPHEMERIS_TYPE": 0, "CLASSIFICATION_TYPE": "U", "NORAD_CAT_ID": 66496, "ELEMENT_SET_NO": 999, "REV_AT_EPOCH": 556, "BSTAR": 0.0011964781, "MEAN_MOTION_DOT": 0.00070541, "MEAN_MOTION_DDOT": 0}, "tle": {"line1": "1 66496U 25263M   25346.74995257  .00070541  00000+0  11965-2 0  9997", "line2": "2 66496  42.9983 125.0593 0001588 275.2711  84.7968 15.50601004  5560"}}, "geometry": {"type": "Point", "coordinates": [32.23509884486633, -42.94523270347832]}}, {"type": "Feature", "properties": {"norad_id": 66497, "name": "STARLINK-35899", "group": "last-30-days", "lat": -42.84381848187918, "lon": 35.035448312913175, "alt_km": 416.6818072694532, "timestamp": "2025-12-13T16:48:31.464493+00:00", "meta": {"OBJECT_NAME": "STARLINK-35899", "OBJECT_ID": "2025-263N", "EPOCH": "2025-12-12T17:59:25.949760", "MEAN_MOTION": 15.50614255, "ECCENTRICITY": 0.00016472, "INCLINATION": 42.9982, "RA_OF_ASC_NODE": 125.0558, "ARG_OF_PERICENTER": 278.6423, "MEAN_ANOMALY": 81.4251, "EPHEMERIS_TYPE": 0, "CLASSIFICATION_TYPE": "U", "NORAD_CAT_ID": 66497, "ELEMENT_SET_NO": 999, "REV_AT_EPOCH": 556, "BSTAR": 0.0016088279, "MEAN_MOTION_DOT": 0.00095318, "MEAN_MOTION_DDOT": 0}, "tle": {"line1": "1 66497U 25263N   25346.74960590  .00095318  00000+0  16088-2 0  9990", "line2": "2 66497  42.9982 125.0558 0001647 278.6423  81.4251 15.50614255  5565"}}, "geometry": {"type": "Point", "coordinates": [35.035448312913175, -42.84381848187918]}}, {"type": "Feature", "properties": {"norad_id": 66498, "name": "STARLINK-35907", "group": "last-30-days", "lat": 16.32899532469374, "lon": -78.5404365943643, "alt_km": 441.61434095057575, "timestamp": "2025-12-13T16:48:31.464503+00:00", "meta": {"OBJECT_NAME": "STARLINK-35907", "OBJECT_ID": "2025-263P", "EPOCH": "2025-12-12T20:00:01.999872", "MEAN_MOTION": 15.40608236, "ECCENTRICITY": 0.00013994, "INCLINATION": 43.0003, "RA_OF_ASC_NODE": 124.7812, "ARG_OF_PERICENTER": 277.1302, "MEAN_ANOMALY": 103.7876, "EPHEMERIS_TYPE": 0, "CLASSIFICATION_TYPE": "U", "NORAD_CAT_ID": 66498, "ELEMENT_SET_NO": 999, "REV_AT_EPOCH": 565, "BSTAR": 0.0031836531, "MEAN_MOTION_DOT": 0.00134646, "MEAN_MOTION_DDOT": 0}, "tle": {"line1": "1 66498U 25263P   25346.83335648  .00134646  00000+0  31837-2 0  9998", "line2": "2 66498  43.0003 124.7812 0001399 277.1302 103.7876 15.40608236  5657"}}, "geometry": {"type": "Point", "coordinates": [-78.5404365943643, 16.32899532469374]}}, {"type": "Feature", "properties": {"norad_id": 66499, "name": "STARLINK-35816", "group": "last-30-days", "lat": -8.821260420712791, "lon": -50.72089803238746, "alt_km": 444.4184126771688, "timestamp": "2025-12-13T16:48:31.464513+00:00", "meta": {"OBJECT_NAME": "STARLINK-35816", "OBJECT_ID": "2025-263Q", "EPOCH": "2025-12-12T20:00:01.999872", "MEAN_MOTION": 15.40610724, "ECCENTRICITY": 0.00014046, "INCLINATION": 42.9999, "RA_OF_ASC_NODE": 124.6902, "ARG_OF_PERICENTER": 277.0339, "MEAN_ANOMALY": 141.1992, "EPHEMERIS_TYPE": 0, "CLASSIFICATION_TYPE": "U", "NORAD_CAT_ID": 66499, "ELEMENT_SET_NO": 999, "REV_AT_EPOCH": 565, "BSTAR": 0.003413869, "MEAN_MOTION_DOT": 0.00144607, "MEAN_MOTION_DDOT": 0}, "tle": {"line1": "1 66499U 25263Q   25346.83335648  .00144607  00000+0  34139-2 0  9995", "line2": "2 66499  42.9999 124.6902 0001404 277.0339 141.1992 15.40610724  5655"}}, "geometry": {"type": "Point", "coordinates": [-50.72089803238746, -8.821260420712791]}}, {"type": "Feature", "properties": {"norad_id": 66500, "name": "STARLINK-35894", "group": "last-30-days", "lat": 33.346221815070926, "lon": -105.06564426046143, "alt_km": 448.7705722659557, "timestamp": "2025-12-13T16:48:31.464523+00:00", "meta": {"OBJECT_NAME": "STARLINK-35894", "OBJECT_ID": "2025-263R", "EPOCH": "2025-12-12T20:00:01.999872", "MEAN_MOTION": 15.41043182, "ECCENTRICITY": 0.00015274, "INCLINATION": 43.0007, "RA_OF_ASC_NODE": 124.8421, "ARG_OF_PERICENTER": 262.8082, "MEAN_ANOMALY": 93.1523, "EPHEMERIS_TYPE": 0, "CLASSIFICATION_TYPE": "U", "NORAD_CAT_ID": 66500, "ELEMENT_SET_NO": 999, "REV_AT_EPOCH": 565, "BSTAR": -0.048905087, "MEAN_MOTION_DOT": -0.01856495, "MEAN_MOTION_DDOT": 0}, "tle": {"line1": "1 66500U 25263R   25346.83335648 -.01856495  00000+0 -48905-1 0  9991", "line2": "2 66500  43.0007 124.8421 0001527 262.8082  93.1523 15.41043182  5656"}}, "geometry": {"type": "Point", "coordinates": [-105.06564426046143, 33.346221815070926]}}, {"type": "Feature", "properties": {"norad_id": 66501, "name": "STARLINK-35897", "group": "last-30-days", "lat": -24.27474160163024, "lon": -31.421056678246018, "alt_km": 447.53604474571875, "timestamp": "2025-12-13T16:48:31.464534+00:00", "meta": {"OBJECT_NAME": "STARLINK-35897", "OBJECT_ID": "2025-263S", "EPOCH": "2025-12-12T20:00:01.999872", "MEAN_MOTION": 15.41032276, "ECCENTRICITY": 0.00016666, "INCLINATION": 43, "RA_OF_ASC_NODE": 124.6303, "ARG_OF_PERICENTER": 268.0557, "MEAN_ANOMALY": 174.8771, "EPHEMERIS_TYPE": 0, "CLASSIFICATION_TYPE": "U", "NORAD_CAT_ID": 66501, "ELEMENT_SET_NO": 999, "REV_AT_EPOCH": 565, "BSTAR": -0.013500736, "MEAN_MOTION_DOT": -0.00532488, "MEAN_MOTION_DDOT": 0}, "tle": {"line1": "1 66501U 25263S   25346.83335648 -.00532488  00000+0 -13501-1 0  9998", "line2": "2 66501  43.0000 124.6303 0001666 268.0557 174.8771 15.41032276  5650"}}, "geometry": {"type": "Point", "coordinates": [-31.421056678246018, -24.27474160163024]}}, {"type": "Feature", "properties": {"norad_id": 66502, "name": "STARLINK-35922", "group": "last-30-days", "lat": -40.55966676851519, "lon": 52.74926776136075, "alt_km": 416.56468912819764, "timestamp": "2025-12-13T16:48:31.464544+00:00", "meta": {"OBJECT_NAME": "STARLINK-35922", "OBJECT_ID": "2025-263T", "EPOCH": "2025-12-12T17:55:58.795392", "MEAN_MOTION": 15.50609171, "ECCENTRICITY": 0.00015478, "INCLINATION": 42.999, "RA_OF_ASC_NODE": 125.0365, "ARG_OF_PERICENTER": 278.8468, "MEAN_ANOMALY": 81.2217, "EPHEMERIS_TYPE": 0, "CLASSIFICATION_TYPE": "U", "NORAD_CAT_ID": 66502, "ELEMENT_SET_NO": 999, "REV_AT_EPOCH": 556, "BSTAR": 0.0018757972, "MEAN_MOTION_DOT": 0.00111401, "MEAN_MOTION_DDOT": 0}, "tle": {"line1": "1 66502U 25263T   25346.74720828  .00111401  00000+0  18758-2 0  9993", "line2": "2 66502  42.9990 125.0365 0001547 278.8468  81.2217 15.50609171  5568"}}, "geometry": {"type": "Point", "coordinates": [52.74926776136075, -40.55966676851519]}}, {"type": "Feature", "properties": {"norad_id": 66503, "name": "STARLINK-35917", "group": "last-30-days", "lat": -41.22237739839953, "lon": 9.624846606981512, "alt_km": 444.28302996814, "timestamp": "2025-12-13T16:48:31.464554+00:00", "meta": {"OBJECT_NAME": "STARLINK-35917", "OBJECT_ID": "2025-263U", "EPOCH": "2025-12-12T20:00:01.999872", "MEAN_MOTION": 15.44974609, "ECCENTRICITY": 0.00015575, "INCLINATION": 43.0002, "RA_OF_ASC_NODE": 124.5567, "ARG_OF_PERICENTER": 287.3644, "MEAN_ANOMALY": 185.6338, "EPHEMERIS_TYPE": 0, "CLASSIFICATION_TYPE": "U", "NORAD_CAT_ID": 66503, "ELEMENT_SET_NO": 999, "REV_AT_EPOCH": 565, "BSTAR": -0.046418719, "MEAN_MOTION_DOT": -0.01997372, "MEAN_MOTION_DDOT": 0}, "tle": {"line1": "1 66503U 25263U   25346.83335648 -.01997372  00000+0 -46419-1 0  9992", "line2": "2 66503  43.0002 124.5567 0001557 287.3644 185.6338 15.44974609  5652"}}, "geometry": {"type": "Point", "coordinates": [9.624846606981512, -41.22237739839953]}}]}